start=new Date('2022-12-04T00:00:00.000Z').valueOf();
sats=[{"GP_ID":"219480031","SITE":"AFETR","NORAD_CAT_ID":"49757","TLE_LINE1":"1 49757U 21115AK  22337.68962757 -.00001328  00000-0 -65326-4 0  9991","COUNTRY_CODE":"US","RCS_SIZE":"LARGE","CLASSIFICATION_TYPE":"U","DECAY_DATE":null,"ECCENTRICITY":"0.00020730","LAUNCH_DATE":"2021-12-02","TLE_LINE2":"2 49757  53.2172  90.2118 0002073  40.0282 320.0863 15.08836531 55724","FILE":"3680595","BSTAR":"-0.00006532600000","REV_AT_EPOCH":"5572","APOAPSIS":"541.190","PERIAPSIS":"538.322","MEAN_MOTION_DOT":"-0.00001328","PERIOD":"95.438","REF_FRAME":"TEME","MEAN_MOTION":"15.08836531","OBJECT_NAME":"STARLINK-3197","CENTER_NAME":"EARTH","SEMIMAJOR_AXIS":"6917.891","OBJECT_ID":"2021-115AK","TIME_SYSTEM":"UTC","INCLINATION":"53.2172","RA_OF_ASC_NODE":"90.2118","MEAN_ELEMENT_THEORY":"SGP4","OBJECT_TYPE":"PAYLOAD","EPOCH":"2022-12-03T16:33:03.822048","MEAN_MOTION_DDOT":"0.0000000000000","MEAN_ANOMALY":"320.0863","ELEMENT_SET_NO":"999","EPHEMERIS_TYPE":"0","ARG_OF_PERICENTER":"40.0282"},{"GP_ID":"219481286","TLE_LINE1":"1 49758U 21115AL  22337.70434569  .00001331  00000-0  10170-3 0  9998","SITE":"AFETR","NORAD_CAT_ID":"49758","COUNTRY_CODE":"US","CLASSIFICATION_TYPE":"U","RCS_SIZE":"LARGE","APOAPSIS":"541.768","REV_AT_EPOCH":"5572","DECAY_DATE":null,"ECCENTRICITY":"0.00029380","TLE_LINE2":"2 49758  53.2186  90.1599 0002938  43.9585 316.1641 15.08843120 55722","LAUNCH_DATE":"2021-12-02","FILE":"3680595","BSTAR":"0.00010170000000","MEAN_MOTION_DOT":"0.00001331","PERIAPSIS":"537.703","PERIOD":"95.437","REF_FRAME":"TEME","MEAN_MOTION":"15.08843120","OBJECT_NAME":"STARLINK-3194","CENTER_NAME":"EARTH","SEMIMAJOR_AXIS":"6917.871","RA_OF_ASC_NODE":"90.1599","TIME_SYSTEM":"UTC","OBJECT_ID":"2021-115AL","INCLINATION":"53.2186","MEAN_ELEMENT_THEORY":"SGP4","OBJECT_TYPE":"PAYLOAD","EPOCH":"2022-12-03T16:54:15.467616","MEAN_MOTION_DDOT":"0.0000000000000","MEAN_ANOMALY":"316.1641","ELEMENT_SET_NO":"999","EPHEMERIS_TYPE":"0","ARG_OF_PERICENTER":"43.9585"},{"EPOCH":"2022-12-03T16:38:20.687136","OBJECT_TYPE":"PAYLOAD","MEAN_MOTION_DDOT":"0.0000000000000","MEAN_ELEMENT_THEORY":"SGP4","RA_OF_ASC_NODE":"90.2106","TIME_SYSTEM":"UTC","OBJECT_ID":"2021-115AM","INCLINATION":"53.2171","CENTER_NAME":"EARTH","SEMIMAJOR_AXIS":"6917.822","ARG_OF_PERICENTER":"46.3579","EPHEMERIS_TYPE":"0","ELEMENT_SET_NO":"999","MEAN_ANOMALY":"313.7602","APOAPSIS":"541.267","REV_AT_EPOCH":"5572","ECCENTRICITY":"0.00022840","DECAY_DATE":null,"FILE":"3680595","TLE_LINE2":"2 49759  53.2171  90.2106 0002284  46.3579 313.7602 15.08859180 55729","LAUNCH_DATE":"2021-12-02","BSTAR":"-0.00023888000000","COUNTRY_CODE":"US","CLASSIFICATION_TYPE":"U","RCS_SIZE":"LARGE","TLE_LINE1":"1 49759U 21115AM  22337.69329499 -.00004090  00000-0 -23888-3 0  9999","SITE":"AFETR","NORAD_CAT_ID":"49759","GP_ID":"219481532","OBJECT_NAME":"STARLINK-3204","MEAN_MOTION":"15.08859180","PERIOD":"95.436","REF_FRAME":"TEME","MEAN_MOTION_DOT":"-0.00004090","PERIAPSIS":"538.107"},{"INCLINATION":"53.2174","OBJECT_ID":"2021-115AN","TIME_SYSTEM":"UTC","RA_OF_ASC_NODE":"90.4249","SEMIMAJOR_AXIS":"6917.901","CENTER_NAME":"EARTH","MEAN_MOTION_DDOT":"0.0000000000000","OBJECT_TYPE":"PAYLOAD","EPOCH":"2022-12-03T15:29:28.284864","MEAN_ELEMENT_THEORY":"SGP4","ELEMENT_SET_NO":"999","MEAN_ANOMALY":"315.3546","EPHEMERIS_TYPE":"0","ARG_OF_PERICENTER":"44.7611","NORAD_CAT_ID":"49760","SITE":"AFETR","TLE_LINE1":"1 49760U 21115AN  22337.64546626 -.00000125  00000-0  10251-4 0  9994","GP_ID":"219479785","FILE":"3680595","TLE_LINE2":"2 49760  53.2174  90.4249 0002046  44.7611 315.3546 15.08833412 55724","LAUNCH_DATE":"2021-12-02","BSTAR":"0.00001025100000","DECAY_DATE":null,"ECCENTRICITY":"0.00020460","REV_AT_EPOCH":"5572","APOAPSIS":"541.181","RCS_SIZE":"LARGE","CLASSIFICATION_TYPE":"U","COUNTRY_CODE":"US","REF_FRAME":"TEME","PERIOD":"95.438","PERIAPSIS":"538.350","MEAN_MOTION_DOT":"-0.00000125","OBJECT_NAME":"STARLINK-3199","MEAN_MOTION":"15.08833412"},{"CLASSIFICATION_TYPE":"U","RCS_SIZE":"LARGE","COUNTRY_CODE":"US","REV_AT_EPOCH":"5572","APOAPSIS":"541.206","LAUNCH_DATE":"2021-12-02","TLE_LINE2":"2 49761  53.2174  90.1731 0002098  43.9115 316.2043 15.08837053 55722","FILE":"3680595","BSTAR":"-0.00000360360000","DECAY_DATE":null,"ECCENTRICITY":"0.00020980","GP_ID":"219480531","TLE_LINE1":"1 49761U 21115AP  22337.70066324 -.00000346  00000-0 -36036-5 0  9990","NORAD_CAT_ID":"49761","SITE":"AFETR","MEAN_MOTION":"15.08837053","OBJECT_NAME":"STARLINK-3203","MEAN_MOTION_DOT":"-0.00000346","PERIAPSIS":"538.303","REF_FRAME":"TEME","PERIOD":"95.438","MEAN_ELEMENT_THEORY":"SGP4","MEAN_MOTION_DDOT":"0.0000000000000","EPOCH":"2022-12-03T16:48:57.303936","OBJECT_TYPE":"PAYLOAD","CENTER_NAME":"EARTH","SEMIMAJOR_AXIS":"6917.889","RA_OF_ASC_NODE":"90.1731","INCLINATION":"53.2174","TIME_SYSTEM":"UTC","OBJECT_ID":"2021-115AP","EPHEMERIS_TYPE":"0","ARG_OF_PERICENTER":"43.9115","MEAN_ANOMALY":"316.2043","ELEMENT_SET_NO":"999"},{"COUNTRY_CODE":"US","CLASSIFICATION_TYPE":"U","RCS_SIZE":"LARGE","ECCENTRICITY":"0.00022140","DECAY_DATE":null,"BSTAR":"-0.00004652900000","TLE_LINE2":"2 49762  53.2179  89.8012 0002214  48.3028 311.8153 15.08830903 55749","FILE":"3680595","LAUNCH_DATE":"2021-12-02","REV_AT_EPOCH":"5574","APOAPSIS":"541.305","GP_ID":"219480787","SITE":"AFETR","NORAD_CAT_ID":"49762","TLE_LINE1":"1 49762U 21115AQ  22337.78530780 -.00001029  00000-0 -46529-4 0  9997","MEAN_MOTION":"15.08830903","OBJECT_NAME":"STARLINK-3195","PERIAPSIS":"538.242","MEAN_MOTION_DOT":"-0.00001029","PERIOD":"95.438","REF_FRAME":"TEME","MEAN_ELEMENT_THEORY":"SGP4","OBJECT_TYPE":"PAYLOAD","EPOCH":"2022-12-03T18:50:50.593920","MEAN_MOTION_DDOT":"0.0000000000000","CENTER_NAME":"EARTH","SEMIMAJOR_AXIS":"6917.908","TIME_SYSTEM":"UTC","OBJECT_ID":"2021-115AQ","INCLINATION":"53.2179","RA_OF_ASC_NODE":"89.8012","ARG_OF_PERICENTER":"48.3028","EPHEMERIS_TYPE":"0","MEAN_ANOMALY":"311.8153","ELEMENT_SET_NO":"999"},{"ELEMENT_SET_NO":"999","MEAN_ANOMALY":"322.8101","EPHEMERIS_TYPE":"0","ARG_OF_PERICENTER":"37.3082","OBJECT_ID":"2021-115AR","TIME_SYSTEM":"UTC","INCLINATION":"53.2168","RA_OF_ASC_NODE":"89.5509","CENTER_NAME":"EARTH","SEMIMAJOR_AXIS":"6917.913","EPOCH":"2022-12-03T20:10:20.246304","OBJECT_TYPE":"PAYLOAD","MEAN_MOTION_DDOT":"0.0000000000000","MEAN_ELEMENT_THEORY":"SGP4","PERIOD":"95.438","REF_FRAME":"TEME","PERIAPSIS":"537.873","MEAN_MOTION_DOT":"0.00001992","OBJECT_NAME":"STARLINK-3198","MEAN_MOTION":"15.08829192","SITE":"AFETR","NORAD_CAT_ID":"49763","TLE_LINE1":"1 49763U 21115AR  22337.84051211  .00001992  00000-0  14329-3 0  9991","GP_ID":"219456312","ECCENTRICITY":"0.00027550","DECAY_DATE":null,"LAUNCH_DATE":"2021-12-02","TLE_LINE2":"2 49763  53.2168  89.5509 0002755  37.3082 322.8101 15.08829192 56861","FILE":"3680442","BSTAR":"0.00014329000000","REV_AT_EPOCH":"5686","APOAPSIS":"541.684","COUNTRY_CODE":"US","RCS_SIZE":"LARGE","CLASSIFICATION_TYPE":"U"},{"BSTAR":"-0.00000734710000","TLE_LINE2":"2 49764  53.2153  89.4626 0002862  47.4546 312.6687 15.08836289 56873","FILE":"3680595","LAUNCH_DATE":"2021-12-02","ECCENTRICITY":"0.00028620","DECAY_DATE":null,"APOAPSIS":"541.737","REV_AT_EPOCH":"5687","CLASSIFICATION_TYPE":"U","RCS_SIZE":"LARGE","COUNTRY_CODE":"US","NORAD_CAT_ID":"49764","SITE":"AFETR","TLE_LINE1":"1 49764U 21115AS  22337.85890657 -.00000406  00000-0 -73471-5 0  9994","GP_ID":"219480285","OBJECT_NAME":"STARLINK-3206","MEAN_MOTION":"15.08836289","REF_FRAME":"TEME","PERIOD":"95.438","PERIAPSIS":"537.777","MEAN_MOTION_DOT":"-0.00000406","MEAN_MOTION_DDOT":"0.0000000000000","OBJECT_TYPE":"PAYLOAD","EPOCH":"2022-12-03T20:36:49.527648","MEAN_ELEMENT_THEORY":"SGP4","INCLINATION":"53.2153","TIME_SYSTEM":"UTC","OBJECT_ID":"2021-115AS","RA_OF_ASC_NODE":"89.4626","SEMIMAJOR_AXIS":"6917.892","CENTER_NAME":"EARTH","ARG_OF_PERICENTER":"47.4546","EPHEMERIS_TYPE":"0","ELEMENT_SET_NO":"999","MEAN_ANOMALY":"312.6687"},{"OBJECT_TYPE":"PAYLOAD","EPOCH":"2022-12-03T13:59:22.769952","MEAN_MOTION_DDOT":"0.0000000000000","MEAN_ELEMENT_THEORY":"SGP4","OBJECT_ID":"2021-115AT","TIME_SYSTEM":"UTC","INCLINATION":"53.2149","RA_OF_ASC_NODE":"90.7001","SEMIMAJOR_AXIS":"6917.852","CENTER_NAME":"EARTH","EPHEMERIS_TYPE":"0","ARG_OF_PERICENTER":"36.7415","ELEMENT_SET_NO":"999","MEAN_ANOMALY":"323.3713","ECCENTRICITY":"0.00019870","DECAY_DATE":null,"TLE_LINE2":"2 49765  53.2149  90.7001 0001987  36.7415 323.3713 15.08849192 56825","LAUNCH_DATE":"2021-12-02","FILE":"3680442","BSTAR":"0.00004384200000","REV_AT_EPOCH":"5682","APOAPSIS":"541.092","COUNTRY_CODE":"US","RCS_SIZE":"LARGE","CLASSIFICATION_TYPE":"U","SITE":"AFETR","NORAD_CAT_ID":"49765","TLE_LINE1":"1 49765U 21115AT  22337.58290243  .00000410  00000-0  43842-4 0  9991","GP_ID":"219456476","OBJECT_NAME":"STARLINK-3227","MEAN_MOTION":"15.08849192","PERIOD":"95.437","REF_FRAME":"TEME","PERIAPSIS":"538.343","MEAN_MOTION_DOT":"0.00000410"},{"ELEMENT_SET_NO":"999","MEAN_ANOMALY":"312.4216","ARG_OF_PERICENTER":"47.6949","EPHEMERIS_TYPE":"0","RA_OF_ASC_NODE":"89.7449","TIME_SYSTEM":"UTC","OBJECT_ID":"2021-115AU","INCLINATION":"53.2175","SEMIMAJOR_AXIS":"6917.887","CENTER_NAME":"EARTH","OBJECT_TYPE":"PAYLOAD","EPOCH":"2022-12-03T19:06:44.112096","MEAN_MOTION_DDOT":"0.0000000000000","MEAN_ELEMENT_THEORY":"SGP4","PERIOD":"95.438","REF_FRAME":"TEME","MEAN_MOTION_DOT":"0.00000792","PERIAPSIS":"538.345","OBJECT_NAME":"STARLINK-3190","MEAN_MOTION":"15.08837806","TLE_LINE1":"1 49766U 21115AU  22337.79634389  .00000792  00000-0  67883-4 0  9992","SITE":"AFETR","NORAD_CAT_ID":"49766","GP_ID":"219481287","APOAPSIS":"541.159","REV_AT_EPOCH":"5574","ECCENTRICITY":"0.00020340","DECAY_DATE":null,"FILE":"3680595","TLE_LINE2":"2 49766  53.2175  89.7449 0002034  47.6949 312.4216 15.08837806 55742","LAUNCH_DATE":"2021-12-02","BSTAR":"0.00006788300000","COUNTRY_CODE":"US","RCS_SIZE":"LARGE","CLASSIFICATION_TYPE":"U"}];
